start=new Date('2022-05-19T00:00:00.000Z').valueOf();
sats=[{"RCS_SIZE":"LARGE","NORAD_CAT_ID":"46168","COUNTRY_CODE":"US","CLASSIFICATION_TYPE":"U","PERIOD":"95.592","CENTER_NAME":"EARTH","MEAN_ANOMALY":"303.6132","ECCENTRICITY":"0.00014910","SEMIMAJOR_AXIS":"6925.324","MEAN_MOTION":"15.06408005","TIME_SYSTEM":"UTC","INCLINATION":"53.0555","ELEMENT_SET_NO":"999","ARG_OF_PERICENTER":"56.4999","MEAN_MOTION_DDOT":"0.0000000000000","BSTAR":"0.00023117000000","OBJECT_NAME":"STARLINK-1627","OBJECT_ID":"2020-057BD","LAUNCH_DATE":"2020-08-18","REV_AT_EPOCH":"9712","GP_ID":"203903476","RA_OF_ASC_NODE":"30.5426","MEAN_MOTION_DOT":"0.00003164","REF_FRAME":"TEME","FILE":"3452356","EPHEMERIS_TYPE":"0","PERIAPSIS":"546.156","DECAY_DATE":null,"APOAPSIS":"548.222","SITE":"AFETR","EPOCH":"2022-05-18T19:17:23.244864","TLE_LINE1":"1 46168U 20057BD  22138.80374126  .00003164  00000-0  23117-3 0  9997","OBJECT_TYPE":"PAYLOAD","TLE_LINE2":"2 46168  53.0555  30.5426 0001491  56.4999 303.6132 15.06408005 97123","MEAN_ELEMENT_THEORY":"SGP4"},{"LAUNCH_DATE":"2020-08-18","OBJECT_ID":"2020-057BE","RA_OF_ASC_NODE":"81.5856","GP_ID":"203876280","REV_AT_EPOCH":"9701","FILE":"3452063","EPHEMERIS_TYPE":"0","REF_FRAME":"TEME","MEAN_MOTION_DOT":"0.00000675","APOAPSIS":"550.878","PERIAPSIS":"548.530","DECAY_DATE":null,"TLE_LINE1":"1 46169U 20057BE  22138.56924157  .00000675  00000-0  65458-4 0  9995","EPOCH":"2022-05-18T13:39:42.471648","SITE":"AFETR","OBJECT_TYPE":"PAYLOAD","TLE_LINE2":"2 46169  53.0011  81.5856 0001695  56.5112 303.6038 15.05587752 97017","MEAN_ELEMENT_THEORY":"SGP4","NORAD_CAT_ID":"46169","RCS_SIZE":"LARGE","PERIOD":"95.644","CENTER_NAME":"EARTH","CLASSIFICATION_TYPE":"U","COUNTRY_CODE":"US","ECCENTRICITY":"0.00016950","MEAN_ANOMALY":"303.6038","MEAN_MOTION":"15.05587752","SEMIMAJOR_AXIS":"6927.839","ARG_OF_PERICENTER":"56.5112","ELEMENT_SET_NO":"999","INCLINATION":"53.0011","TIME_SYSTEM":"UTC","BSTAR":"0.00006545800000","MEAN_MOTION_DDOT":"0.0000000000000","OBJECT_NAME":"STARLINK-1628"},{"OBJECT_NAME":"STARLINK-1633","MEAN_MOTION_DDOT":"0.0000000000000","BSTAR":"0.00010338000000","ARG_OF_PERICENTER":"56.3761","ELEMENT_SET_NO":"999","INCLINATION":"53.0563","TIME_SYSTEM":"UTC","MEAN_MOTION":"15.06400915","SEMIMAJOR_AXIS":"6925.346","ECCENTRICITY":"0.00020440","MEAN_ANOMALY":"303.7423","CLASSIFICATION_TYPE":"U","COUNTRY_CODE":"US","PERIOD":"95.592","CENTER_NAME":"EARTH","NORAD_CAT_ID":"46171","RCS_SIZE":"LARGE","MEAN_ELEMENT_THEORY":"SGP4","TLE_LINE2":"2 46171  53.0563  62.0066 0002044  56.3761 303.7423 15.06400915 97910","OBJECT_TYPE":"PAYLOAD","SITE":"AFETR","TLE_LINE1":"1 46171U 20057BG  22138.47756137  .00001258  00000-0  10338-3 0  9993","EPOCH":"2022-05-18T11:27:41.302368","PERIAPSIS":"545.795","DECAY_DATE":null,"APOAPSIS":"548.626","MEAN_MOTION_DOT":"0.00001258","REF_FRAME":"TEME","EPHEMERIS_TYPE":"0","FILE":"3451871","GP_ID":"203869051","RA_OF_ASC_NODE":"62.0066","REV_AT_EPOCH":"9791","OBJECT_ID":"2020-057BG","LAUNCH_DATE":"2020-08-18"},{"GP_ID":"203799105","RA_OF_ASC_NODE":"63.4371","REV_AT_EPOCH":"9726","OBJECT_ID":"2020-057BH","LAUNCH_DATE":"2020-08-18","REF_FRAME":"TEME","MEAN_MOTION_DOT":"0.00000504","FILE":"3450785","EPHEMERIS_TYPE":"0","SITE":"AFETR","TLE_LINE1":"1 46172U 20057BH  22138.16057597  .00000504  00000-0  52736-4 0  9996","EPOCH":"2022-05-18T03:51:13.763808","PERIAPSIS":"546.065","DECAY_DATE":null,"APOAPSIS":"548.386","MEAN_ELEMENT_THEORY":"SGP4","TLE_LINE2":"2 46172  53.0538  63.4371 0001676  53.8811 306.2333 15.06396083 97261","OBJECT_TYPE":"PAYLOAD","NORAD_CAT_ID":"46172","RCS_SIZE":"LARGE","ECCENTRICITY":"0.00016760","MEAN_ANOMALY":"306.2333","CLASSIFICATION_TYPE":"U","COUNTRY_CODE":"US","PERIOD":"95.592","CENTER_NAME":"EARTH","INCLINATION":"53.0538","ELEMENT_SET_NO":"999","ARG_OF_PERICENTER":"53.8811","TIME_SYSTEM":"UTC","MEAN_MOTION":"15.06396083","SEMIMAJOR_AXIS":"6925.361","OBJECT_NAME":"STARLINK-1635","MEAN_MOTION_DDOT":"0.0000000000000","BSTAR":"0.00005273600000"},{"MEAN_ANOMALY":"315.6495","ECCENTRICITY":"0.00019310","CENTER_NAME":"EARTH","PERIOD":"95.593","COUNTRY_CODE":"US","CLASSIFICATION_TYPE":"U","RCS_SIZE":"LARGE","NORAD_CAT_ID":"46173","OBJECT_NAME":"STARLINK-1640","BSTAR":"0.00014219000000","MEAN_MOTION_DDOT":"0.0000000000000","TIME_SYSTEM":"UTC","ARG_OF_PERICENTER":"44.4648","ELEMENT_SET_NO":"999","INCLINATION":"53.0561","SEMIMAJOR_AXIS":"6925.370","MEAN_MOTION":"15.06392935","FILE":"3452356","EPHEMERIS_TYPE":"0","MEAN_MOTION_DOT":"0.00001836","REF_FRAME":"TEME","REV_AT_EPOCH":"9643","RA_OF_ASC_NODE":"80.2603","GP_ID":"203903975","LAUNCH_DATE":"2020-08-18","OBJECT_ID":"2020-057BJ","TLE_LINE2":"2 46173  53.0561  80.2603 0001931  44.4648 315.6495 15.06392935 96434","MEAN_ELEMENT_THEORY":"SGP4","OBJECT_TYPE":"PAYLOAD","TLE_LINE1":"1 46173U 20057BJ  22138.87011081  .00001836  00000-0  14219-3 0  9995","EPOCH":"2022-05-18T20:52:57.573984","SITE":"AFETR","APOAPSIS":"548.573","DECAY_DATE":null,"PERIAPSIS":"545.898"},{"MEAN_ELEMENT_THEORY":"SGP4","TLE_LINE2":"2 46174  53.0569  80.2262 0002075  41.1010 319.0135 15.06395580 96439","OBJECT_TYPE":"PAYLOAD","SITE":"AFETR","EPOCH":"2022-05-18T21:03:34.959744","TLE_LINE1":"1 46174U 20057BK  22138.87748796  .00001367  00000-0  11069-3 0  9995","PERIAPSIS":"545.790","DECAY_DATE":null,"APOAPSIS":"548.664","MEAN_MOTION_DOT":"0.00001367","REF_FRAME":"TEME","EPHEMERIS_TYPE":"0","FILE":"3452356","RA_OF_ASC_NODE":"80.2262","GP_ID":"203902724","REV_AT_EPOCH":"9643","OBJECT_ID":"2020-057BK","LAUNCH_DATE":"2020-08-18","OBJECT_NAME":"STARLINK-1641","MEAN_MOTION_DDOT":"0.0000000000000","BSTAR":"0.00011069000000","ELEMENT_SET_NO":"999","ARG_OF_PERICENTER":"41.1010","INCLINATION":"53.0569","TIME_SYSTEM":"UTC","MEAN_MOTION":"15.06395580","SEMIMAJOR_AXIS":"6925.362","ECCENTRICITY":"0.00020750","MEAN_ANOMALY":"319.0135","CLASSIFICATION_TYPE":"U","COUNTRY_CODE":"US","CENTER_NAME":"EARTH","PERIOD":"95.592","NORAD_CAT_ID":"46174","RCS_SIZE":"LARGE"},{"GP_ID":"203903237","RA_OF_ASC_NODE":"95.1765","REV_AT_EPOCH":"9592","LAUNCH_DATE":"2020-09-03","OBJECT_ID":"2020-062A","EPHEMERIS_TYPE":"0","FILE":"3452356","REF_FRAME":"TEME","MEAN_MOTION_DOT":"-0.00000431","TLE_LINE1":"1 46325U 20062A   22138.88900351 -.00000431  00000-0 -99958-5 0  9995","EPOCH":"2022-05-18T21:20:09.903264","SITE":"AFETR","APOAPSIS":"548.921","DECAY_DATE":null,"PERIAPSIS":"545.471","MEAN_ELEMENT_THEORY":"SGP4","TLE_LINE2":"2 46325  53.0546  95.1765 0002491  45.4773 314.6419 15.06405650 95929","OBJECT_TYPE":"PAYLOAD","NORAD_CAT_ID":"46325","RCS_SIZE":"LARGE","ECCENTRICITY":"0.00024910","MEAN_ANOMALY":"314.6419","CENTER_NAME":"EARTH","PERIOD":"95.592","CLASSIFICATION_TYPE":"U","COUNTRY_CODE":"US","ARG_OF_PERICENTER":"45.4773","ELEMENT_SET_NO":"999","INCLINATION":"53.0546","TIME_SYSTEM":"UTC","MEAN_MOTION":"15.06405650","SEMIMAJOR_AXIS":"6925.331","OBJECT_NAME":"STARLINK-1734","BSTAR":"-0.00000999580000","MEAN_MOTION_DDOT":"0.0000000000000"},{"BSTAR":"0.00006633800000","MEAN_MOTION_DDOT":"0.0000000000000","OBJECT_NAME":"STARLINK-1654","SEMIMAJOR_AXIS":"6925.343","MEAN_MOTION":"15.06401850","TIME_SYSTEM":"UTC","ELEMENT_SET_NO":"999","ARG_OF_PERICENTER":"47.2869","INCLINATION":"53.0557","CENTER_NAME":"EARTH","PERIOD":"95.592","COUNTRY_CODE":"US","CLASSIFICATION_TYPE":"U","MEAN_ANOMALY":"312.8329","ECCENTRICITY":"0.00024820","RCS_SIZE":"LARGE","NORAD_CAT_ID":"46326","OBJECT_TYPE":"PAYLOAD","MEAN_ELEMENT_THEORY":"SGP4","TLE_LINE2":"2 46326  53.0557 140.8780 0002482  47.2869 312.8329 15.06401850 94661","APOAPSIS":"548.927","PERIAPSIS":"545.489","DECAY_DATE":null,"TLE_LINE1":"1 46326U 20062B   22138.73095748  .00000706  00000-0  66338-4 0  9993","EPOCH":"2022-05-18T17:32:34.726272","SITE":"AFETR","EPHEMERIS_TYPE":"0","FILE":"3452356","MEAN_MOTION_DOT":"0.00000706","REF_FRAME":"TEME","LAUNCH_DATE":"2020-09-03","OBJECT_ID":"2020-062B","REV_AT_EPOCH":"9466","RA_OF_ASC_NODE":"140.8780","GP_ID":"203903488"},{"CENTER_NAME":"EARTH","PERIOD":"95.592","CLASSIFICATION_TYPE":"U","COUNTRY_CODE":"US","ECCENTRICITY":"0.00016210","MEAN_ANOMALY":"300.6688","NORAD_CAT_ID":"46327","RCS_SIZE":"LARGE","BSTAR":"0.00008071200000","MEAN_MOTION_DDOT":"0.0000000000000","OBJECT_NAME":"STARLINK-1673","MEAN_MOTION":"15.06398749","SEMIMAJOR_AXIS":"6925.352","INCLINATION":"53.0528","ELEMENT_SET_NO":"999","ARG_OF_PERICENTER":"59.4461","TIME_SYSTEM":"UTC","EPHEMERIS_TYPE":"0","FILE":"3452356","MEAN_MOTION_DOT":"0.00000921","REF_FRAME":"TEME","LAUNCH_DATE":"2020-09-03","OBJECT_ID":"2020-062C","GP_ID":"203902236","RA_OF_ASC_NODE":"140.9762","REV_AT_EPOCH":"9465","OBJECT_TYPE":"PAYLOAD","MEAN_ELEMENT_THEORY":"SGP4","TLE_LINE2":"2 46327  53.0528 140.9762 0001621  59.4461 300.6688 15.06398749 94652","APOAPSIS":"548.340","PERIAPSIS":"546.095","DECAY_DATE":null,"TLE_LINE1":"1 46327U 20062C   22138.70978550  .00000921  00000-0  80712-4 0  9993","EPOCH":"2022-05-18T17:02:05.467200","SITE":"AFETR"},{"LAUNCH_DATE":"2020-09-03","OBJECT_ID":"2020-062D","RA_OF_ASC_NODE":"121.0673","GP_ID":"203902486","REV_AT_EPOCH":"9493","FILE":"3452356","EPHEMERIS_TYPE":"0","MEAN_MOTION_DOT":"0.00000980","REF_FRAME":"TEME","APOAPSIS":"549.087","PERIAPSIS":"545.338","DECAY_DATE":null,"TLE_LINE1":"1 46328U 20062D   22138.68950357  .00000980  00000-0  84699-4 0  9999","EPOCH":"2022-05-18T16:32:53.108448","SITE":"AFETR","OBJECT_TYPE":"PAYLOAD","MEAN_ELEMENT_THEORY":"SGP4","TLE_LINE2":"2 46328  53.0556 121.0673 0002707  50.8605 309.2624 15.06400414 94935","NORAD_CAT_ID":"46328","RCS_SIZE":"LARGE","PERIOD":"95.592","CENTER_NAME":"EARTH","CLASSIFICATION_TYPE":"U","COUNTRY_CODE":"US","ECCENTRICITY":"0.00027070","MEAN_ANOMALY":"309.2624","MEAN_MOTION":"15.06400414","SEMIMAJOR_AXIS":"6925.347","ARG_OF_PERICENTER":"50.8605","ELEMENT_SET_NO":"999","INCLINATION":"53.0556","TIME_SYSTEM":"UTC","BSTAR":"0.00008469900000","MEAN_MOTION_DDOT":"0.0000000000000","OBJECT_NAME":"STARLINK-1686"}];
